satname,norad_id,inclination_deg,eccentricity,mean_motion_rev_per_day,perigee_km,apogee_km,l1,l2
STARLINK-1362,45538,53.0525,0.0001457,15.06394133,546.2205136018292,548.2385654114423,1 45538U 20025H   25275.69512731  .00002419  00000+0  18123-3 0  9992,2 45538  53.0525  95.6016 0001457  82.4599 277.6555 15.06394133301284
STARLINK-1368,45540,53.0535,0.0001415,15.06394764,546.2476664789492,548.2075446623267,1 45540U 20025K   25275.83249433  .00001412  00000+0  11366-3 0  9991,2 45540  53.0535  95.2658 0001415  90.4761 269.6390 15.06394764301299
STARLINK-1371,45542,53.0541,0.000138,15.06392251,546.2796062305761,548.1910089874755,1 45542U 20025M   25275.86934721  .00000657  00000+0  62985-4 0  9991,2 45542  53.0541  95.1016 0001380  84.3808 275.7338 15.06392251301301
STARLINK-1372,45543,53.0534,0.0001355,15.06394509,546.290000103596,548.1667741235042,1 45543U 20025N   25275.90620312  .00001248  00000+0  10266-3 0  9996,2 45543  53.0534  94.9354 0001355  85.5308 274.5835 15.06394509300403
STARLINK-1373,45544,53.0517,0.0001372,15.06390644,546.2900711228285,548.1903946355305,1 45544U 20025P   25276.52176208 -.00002508  00000+0 -14954-3 0  9996,2 45544  53.0517  92.1718 0001372  91.3625 268.7521 15.06390644301409
STARLINK-1294,45551,53.0519,0.0005753,15.55280729,397.43647633942055,405.2369387873423,1 45551U 20025W   25276.32141056  .00123372  00000+0  17674-2 0  9997,2 45551  53.0519  36.4076 0005753 304.1278  55.9186 15.55280729302177
STARLINK-1323,45553,53.0348,0.0003934,15.98916541,274.8053375878271,280.0419326955571,1 45553U 20025Y   25276.66670139  .00607472  17245-3  12366-2 0  9999,2 45553  53.0348  13.9241 0003934  39.1128 104.5028 15.98916541  6038
STARLINK-1325,45554,53.0608,0.0006497,15.48880507,415.58303284604426,424.41653178098295,1 45554U 20025Z   25276.66670139  .00141412  00000+0  25411-2 0  9999,2 45554  53.0608  27.0664 0006497   9.7308 234.8021 15.48880507  5826
STARLINK-1327,45555,53.0537,0.0001251,15.06385024,546.3910907549543,548.1238244482465,1 45555U 20025AA  25276.42777103 -.00000483  00000+0 -13518-4 0  9994,2 45555  53.0537  72.5931 0001251  90.4007 269.7126 15.06385024301668
STARLINK-1336,45557,53.0399,9.83e-05,15.93879212,290.78355457946327,292.09479325525626,1 45557U 20025AC  25276.66670139  .00505863  11326-3  13584-2 0  9991,2 45557  53.0399  19.8944 0000983  59.9758 357.1871 15.93879212  6011
STARLINK-1342,45558,53.0433,0.0003823,16.08633491,248.060474471401,253.12880268225672,1 45558U 20025AD  25275.80857605  .00904448  46377-3  10277-2 0  9994,2 45558  53.0433  19.8426 0003823 357.5388   2.5626 16.08633491302346
STARLINK-1356,45564,53.0535,0.0001269,15.06395332,546.3470361753725,548.1046932704394,1 45564U 20025AK  25276.43144496 -.00000260  00000+0  14627-5 0  9993,2 45564  53.0535  72.5744 0001269  94.5602 265.5532 15.06395332301661
STARLINK-1357,45565,53.0642,0.0006924,15.27540805,478.4156959620768,487.9172289969183,1 45565U 20025AL  25276.43143910  .00145731  00000+0  52444-2 0  9992,2 45565  53.0642  62.2255 0006924 175.8916 184.2141 15.27540805301818
STARLINK-1361,45567,53.0537,0.0001435,15.06394125,546.235773923705,548.2233541275809,1 45567U 20025AN  25275.85275755  .00000702  00000+0  66043-4 0  9992,2 45567  53.0537  75.1738 0001435  88.4750 271.6404 15.06394125301585
STARLINK-1363,45568,53.0536,0.0001429,15.0639985,546.222385292087,548.2016500413356,1 45568U 20025AP  25276.46465044  .00001011  00000+0  86731-4 0  9993,2 45568  53.0536  72.6686 0001429  80.4178 279.6972 15.06399850301665
STARLINK-1366,45569,53.0535,0.0001155,15.06367277,546.5119616935353,548.1117403781245,1 45569U 20025AQ  25275.85646477 -.00009048  00000+0 -58986-3 0  9997,2 45569  53.0535  75.1580 0001155  94.5608 265.5513 15.06367277301579
STARLINK-1376,45570,53.0535,0.0001302,15.06397745,546.3167879150315,548.1201504792107,1 45570U 20025AR  25275.84906893  .00002271  00000+0  17131-3 0  9995,2 45570  53.0535  75.1920 0001302  84.9206 275.1931 15.06397745301574
STARLINK-1320,45572,53.0603,0.0007787,15.38166664,446.2125108605496,456.8490354504611,1 45572U 20025AT  25276.55862753  .00116609  00000+0  30183-2 0  9994,2 45572  53.0603  22.0103 0007787 250.6544 109.3617 15.38166664302407
STARLINK-1321,45573,53.0545,0.0001181,15.06402825,546.3850170915239,548.020782375841,1 45573U 20025AU  25276.43236203  .00001033  00000+0  88248-4 0  9998,2 45573  53.0545  62.5722 0001181  90.6643 269.4481 15.06402825301507
STARLINK-1328,45576,53.0537,0.0005534,15.5900531,386.78883877110366,394.2804045219427,1 45576U 20025AX  25276.66670139  .00171342  00000+0  21214-2 0  9995,2 45576  53.0537  49.1129 0005534 287.5984 184.6793 15.59005310  5864
STARLINK-1331,45578,53.0531,0.000125,15.06386555,546.3870915126763,548.1184389539849,1 45578U 20025AZ  25275.74678460 -.00001265  00000+0 -66078-4 0  9997,2 45578  53.0531  65.6499 0001250  89.8124 270.3008 15.06386555301713
STARLINK-1333,45580,53.0538,0.0001384,15.06406833,546.2321505145364,548.149081198605,1 45580U 20025BB  25276.41670672  .00001415  00000+0  11386-3 0  9998,2 45580  53.0538  72.6441 0001384  97.8381 262.2765 15.06406833301666
STARLINK-1335,45581,53.0562,0.0001447,15.06408324,546.1839519498453,548.1881404394153,1 45581U 20025BC  25276.42130131  .00000351  00000+0  42424-4 0  9997,2 45581  53.0562  62.6249 0001447  78.2143 281.9009 15.06408324301800
STARLINK-1337,45582,53.0541,0.000131,15.06357918,546.4332986526779,548.2477737671652,1 45582U 20025BD  25275.84631482 -.00005289  00000+0 -33684-3 0  9992,2 45582  53.0541  65.2048 0001310  94.5392 265.5746 15.06357918301718
STARLINK-1347,45586,53.0534,0.0005556,15.26992587,480.9955331529545,488.6216382878065,1 45586U 20025BH  25276.41484393  .00134373  00000+0  49262-2 0  9990,2 45586  53.0534  52.6496 0005556 189.7652 170.3239 15.26992587301936
STARLINK-1360,45588,53.0485,0.0005486,15.69302908,357.19491244214896,364.5889749991984,1 45588U 20025BK  25276.66670139  .00140877  00000+0  11667-2 0  9998,2 45588  53.0485 338.7799 0005486  18.4652 305.2371 15.69302908  5988
STARLINK-1364,45589,53.0542,8.01e-05,15.06444545,546.5203278088939,547.6297467772683,1 45589U 20025BL  25276.38073781  .00016254  00000+0  11063-2 0  9999,2 45589  53.0542  62.8072 0000801  84.9543 275.1537 15.06444545301797
STARLINK-1365,45590,53.0537,0.0001375,15.06387314,546.2981982011597,548.202679746877,1 45590U 20025BM  25275.73297032 -.00000422  00000+0 -94234-5 0  9992,2 45590  53.0537  95.7119 0001375  93.3515 266.7632 15.06387314301297
STARLINK-1443,45660,53.0535,0.0001178,15.0640542,546.3791423654129,548.0107505720007,1 45660U 20035D   25276.38168477  .00017031  00000+0  11593-2 0  9999,2 45660  53.0535  52.8016 0001178  99.1121 261.0002 15.06405420295022
STARLINK-1446,45663,53.0282,0.0003709,15.30635916,471.3723860800983,476.4552373722372,1 45663U 20035G   25276.46724768  .00043539  00000+0  14535-2 0  9993,2 45663  53.0282  20.4409 0003709 172.2202 187.8856 15.30635916295480
STARLINK-1448,45665,53.0537,0.0001306,15.06428502,546.2197656772823,548.0286439039746,1 45665U 20035J   25276.65076314  .00013007  00000+0  88979-3 0  9994,2 45665  53.0537  51.5898 0001306 104.2899 255.8235 15.06428502295054
STARLINK-1451,45668,53.0539,0.0001143,15.06409859,546.3897778015762,547.9729055744856,1 45668U 20035M   25276.65448032  .00019667  00000+0  13352-2 0  9997,2 45668  53.0539  51.8929 0001143  92.4422 267.6698 15.06409859295065
STARLINK-1452,45669,53.0409,0.0007044,15.23774188,489.6277152360253,499.3098422571238,1 45669U 20035N   25276.66670139  .00109467  00000+0  44363-2 0  9998,2 45669  53.0409  36.4752 0007044 273.0987 226.3192 15.23774188  5850
STARLINK-1453,45670,53.0573,0.0001335,15.06402895,546.27815234647,548.1272180424176,1 45670U 20035P   25276.59824043  .00016402  00000+0  11173-2 0  9996,2 45670  53.0573  21.8312 0001335  82.3681 277.7460 15.06402895295362
STARLINK-1454,45671,53.0553,0.0001262,15.06396659,546.3478173607491,548.0957779212731,1 45671U 20035Q   25276.41117136  .00008755  00000+0  60599-3 0  9995,2 45671  53.0553  52.6688 0001262  87.8841 272.2293 15.06396659295012
STARLINK-1456,45673,53.0545,0.0001206,15.06400154,546.3758889713326,548.0462829296639,1 45673U 20035S   25276.35956625  .00007538  00000+0  52439-3 0  9996,2 45673  53.0545  52.9018 0001206  88.9047 271.2080 15.06400154295023
STARLINK-1457,45674,53.054,0.0001025,15.0635894,546.6275426566563,548.0472649094318,1 45674U 20035T   25276.36694104 -.00005304  00000+0 -33786-3 0  9994,2 45674  53.0540  52.8674 0001025  88.6184 271.4923 15.06358940294992
STARLINK-1458,45675,53.0539,0.0001485,15.06404392,546.1696848616239,548.2265093854703,1 45675U 20035U   25276.42223959  .00010624  00000+0  73098-3 0  9997,2 45675  53.0539  52.6173 0001485  91.7337 268.3822 15.06404392294994
STARLINK-1460,45676,53.0532,0.0001423,15.06412765,546.1869637953932,548.157906860688,1 45676U 20035V   25276.65812396  .00003484  00000+0  25256-3 0  9991,2 45676  53.0532  51.5582 0001423  98.2085 261.9066 15.06412765295021
STARLINK-1392,45677,53.0548,0.0001496,15.06394157,546.1934311263094,548.2655007729227,1 45677U 20035W   25276.40379316 -.00002079  00000+0 -12072-3 0  9998,2 45677  53.0548  52.6965 0001496 118.6983 241.4156 15.06394157295027
STARLINK-1394,45679,53.0543,0.0001327,15.06395045,546.3077485723807,548.1457401101288,1 45679U 20035Y   25276.20199358  .00015835  00000+0  10797-2 0  9997,2 45679  53.0543  43.6056 0001327 114.0753 246.0375 15.06395045295136
STARLINK-1402,45685,53.055,0.000135,15.06389288,546.3094623825209,548.1793153575154,1 45685U 20035AE  25276.49815558 -.00004360  00000+0 -27405-3 0  9990,2 45685  53.0550  36.6993 0001350  76.7299 283.3840 15.06389288295265
STARLINK-1404,45686,53.0552,0.0001168,15.0638269,546.4557241950306,548.0734980113839,1 45686U 20035AF  25276.62588905 -.00001353  00000+0 -71999-4 0  9996,2 45686  53.0552  41.7072 0001168  83.1936 276.9186 15.06382690295205
